CCSDS_OMM_VERS = 2.0
CREATION_DATE  = 
ORIGINATOR     = 

OBJECT_NAME    = STARLINK-36823
OBJECT_ID      = 2026-042B
CENTER_NAME    = EARTH
REF_FRAME      = TEME
TIME_SYSTEM    = UTC
MEAN_ELEMENT_THEORY = SGP/SGP4

EPOCH          = 2026-03-28T06:46:04.548576
MEAN_MOTION    = 15.80964953
ECCENTRICITY   = .0001446
INCLINATION    = 53.1585
RA_OF_ASC_NODE = 101.5909
ARG_OF_PERICENTER = 50.7660
MEAN_ANOMALY   = 309.3491

EPHEMERIS_TYPE = 0
CLASSIFICATION_TYPE = U
NORAD_CAT_ID   = 68070
ELEMENT_SET_NO = 999
REV_AT_EPOCH   = 502
BSTAR          = .16534E-2
MEAN_MOTION_DOT = .340255E-2
MEAN_MOTION_DDOT = 0

CCSDS_OMM_VERS = 2.0
CREATION_DATE  = 
ORIGINATOR     = 

OBJECT_NAME    = STARLINK-36970
OBJECT_ID      = 2026-042C
CENTER_NAME    = EARTH
REF_FRAME      = TEME
TIME_SYSTEM    = UTC
MEAN_ELEMENT_THEORY = SGP/SGP4

EPOCH          = 2026-03-28T14:00:01.999872
MEAN_MOTION    = 15.75184266
ECCENTRICITY   = .00012333
INCLINATION    = 53.1587
RA_OF_ASC_NODE = 100.2062
ARG_OF_PERICENTER = 120.8704
MEAN_ANOMALY   = 94.2956

EPHEMERIS_TYPE = 0
CLASSIFICATION_TYPE = U
NORAD_CAT_ID   = 68071
ELEMENT_SET_NO = 999
REV_AT_EPOCH   = 508
BSTAR          = .32389077E-3
MEAN_MOTION_DOT = .49179E-3
MEAN_MOTION_DDOT = 0

CCSDS_OMM_VERS = 2.0
CREATION_DATE  = 
ORIGINATOR     = 

OBJECT_NAME    = STARLINK-36972
OBJECT_ID      = 2026-042D
CENTER_NAME    = EARTH
REF_FRAME      = TEME
TIME_SYSTEM    = UTC
MEAN_ELEMENT_THEORY = SGP/SGP4

EPOCH          = 2026-03-28T12:49:07.218048
MEAN_MOTION    = 15.81061716
ECCENTRICITY   = .00009472
INCLINATION    = 53.1575
RA_OF_ASC_NODE = 100.3191
ARG_OF_PERICENTER = 145.4718
MEAN_ANOMALY   = 214.6367

EPHEMERIS_TYPE = 0
CLASSIFICATION_TYPE = U
NORAD_CAT_ID   = 68072
ELEMENT_SET_NO = 999
REV_AT_EPOCH   = 506
BSTAR          = .16258475E-2
MEAN_MOTION_DOT = .335905E-2
MEAN_MOTION_DDOT = 0

CCSDS_OMM_VERS = 2.0
CREATION_DATE  = 
ORIGINATOR     = 

OBJECT_NAME    = STARLINK-37074
OBJECT_ID      = 2026-042E
CENTER_NAME    = EARTH
REF_FRAME      = TEME
TIME_SYSTEM    = UTC
MEAN_ELEMENT_THEORY = SGP/SGP4

EPOCH          = 2026-03-28T14:00:01.999872
MEAN_MOTION    = 15.75207128
ECCENTRICITY   = .0000944
INCLINATION    = 53.1582
RA_OF_ASC_NODE = 100.0959
ARG_OF_PERICENTER = 96.4081
MEAN_ANOMALY   = 172.0901

EPHEMERIS_TYPE = 0
CLASSIFICATION_TYPE = U
NORAD_CAT_ID   = 68073
ELEMENT_SET_NO = 999
REV_AT_EPOCH   = 508
BSTAR          = .28210076E-3
MEAN_MOTION_DOT = .42761E-3
MEAN_MOTION_DDOT = 0

CCSDS_OMM_VERS = 2.0
CREATION_DATE  = 
ORIGINATOR     = 

OBJECT_NAME    = STARLINK-37045
OBJECT_ID      = 2026-042F
CENTER_NAME    = EARTH
REF_FRAME      = TEME
TIME_SYSTEM    = UTC
MEAN_ELEMENT_THEORY = SGP/SGP4

EPOCH          = 2026-03-27T11:31:55.293312
MEAN_MOTION    = 15.75302623
ECCENTRICITY   = .000277
INCLINATION    = 53.1596
RA_OF_ASC_NODE = 105.8489
ARG_OF_PERICENTER = 39.0243
MEAN_ANOMALY   = 321.0976

EPHEMERIS_TYPE = 0
CLASSIFICATION_TYPE = U
NORAD_CAT_ID   = 68074
ELEMENT_SET_NO = 999
REV_AT_EPOCH   = 489
BSTAR          = .47577E-3
MEAN_MOTION_DOT = .73136E-3
MEAN_MOTION_DDOT = 0

CCSDS_OMM_VERS = 2.0
CREATION_DATE  = 
ORIGINATOR     = 

OBJECT_NAME    = STARLINK-37026
OBJECT_ID      = 2026-042G
CENTER_NAME    = EARTH
REF_FRAME      = TEME
TIME_SYSTEM    = UTC
MEAN_ELEMENT_THEORY = SGP/SGP4

EPOCH          = 2026-03-28T13:38:33.403488
MEAN_MOTION    = 15.75547702
ECCENTRICITY   = .00011315
INCLINATION    = 53.1577
RA_OF_ASC_NODE = 100.5459
ARG_OF_PERICENTER = 101.2588
MEAN_ANOMALY   = 258.8559

EPHEMERIS_TYPE = 0
CLASSIFICATION_TYPE = U
NORAD_CAT_ID   = 68075
ELEMENT_SET_NO = 999
REV_AT_EPOCH   = 506
BSTAR          = .27618719E-2
MEAN_MOTION_DOT = .452215E-2
MEAN_MOTION_DDOT = 0

CCSDS_OMM_VERS = 2.0
CREATION_DATE  = 
ORIGINATOR     = 

OBJECT_NAME    = STARLINK-37023
OBJECT_ID      = 2026-042H
CENTER_NAME    = EARTH
REF_FRAME      = TEME
TIME_SYSTEM    = UTC
MEAN_ELEMENT_THEORY = SGP/SGP4

EPOCH          = 2026-03-28T11:59:45.907296
MEAN_MOTION    = 15.75320891
ECCENTRICITY   = .00012927
INCLINATION    = 53.1578
RA_OF_ASC_NODE = 100.8246
ARG_OF_PERICENTER = 104.7292
MEAN_ANOMALY   = 255.3872

EPHEMERIS_TYPE = 0
CLASSIFICATION_TYPE = U
NORAD_CAT_ID   = 68076
ELEMENT_SET_NO = 999
REV_AT_EPOCH   = 505
BSTAR          = .13418736E-2
MEAN_MOTION_DOT = .211018E-2
MEAN_MOTION_DDOT = 0

CCSDS_OMM_VERS = 2.0
CREATION_DATE  = 
ORIGINATOR     = 

OBJECT_NAME    = STARLINK-37036
OBJECT_ID      = 2026-042J
CENTER_NAME    = EARTH
REF_FRAME      = TEME
TIME_SYSTEM    = UTC
MEAN_ELEMENT_THEORY = SGP/SGP4

EPOCH          = 2026-03-28T12:00:14.349312
MEAN_MOTION    = 15.75307434
ECCENTRICITY   = .00013468
INCLINATION    = 53.1576
RA_OF_ASC_NODE = 100.8271
ARG_OF_PERICENTER = 121.5141
MEAN_ANOMALY   = 238.6011

EPHEMERIS_TYPE = 0
CLASSIFICATION_TYPE = U
NORAD_CAT_ID   = 68077
ELEMENT_SET_NO = 999
REV_AT_EPOCH   = 505
BSTAR          = .98885203E-3
MEAN_MOTION_DOT = .154193E-2
MEAN_MOTION_DDOT = 0

CCSDS_OMM_VERS = 2.0
CREATION_DATE  = 
ORIGINATOR     = 

OBJECT_NAME    = STARLINK-36973
OBJECT_ID      = 2026-042K
CENTER_NAME    = EARTH
REF_FRAME      = TEME
TIME_SYSTEM    = UTC
MEAN_ELEMENT_THEORY = SGP/SGP4

EPOCH          = 2026-03-28T14:00:01.999872
MEAN_MOTION    = 15.75280262
ECCENTRICITY   = .00009496
INCLINATION    = 53.1581
RA_OF_ASC_NODE = 100.0993
ARG_OF_PERICENTER = 98.3281
MEAN_ANOMALY   = 168.3177

EPHEMERIS_TYPE = 0
CLASSIFICATION_TYPE = U
NORAD_CAT_ID   = 68078
ELEMENT_SET_NO = 999
REV_AT_EPOCH   = 508
BSTAR          = -.89112382E-3
MEAN_MOTION_DOT = -.135316E-2
MEAN_MOTION_DDOT = 0

CCSDS_OMM_VERS = 2.0
CREATION_DATE  = 
ORIGINATOR     = 

OBJECT_NAME    = STARLINK-37063
OBJECT_ID      = 2026-042L
CENTER_NAME    = EARTH
REF_FRAME      = TEME
TIME_SYSTEM    = UTC
MEAN_ELEMENT_THEORY = SGP/SGP4

EPOCH          = 2026-03-28T12:41:34.208160
MEAN_MOTION    = 15.81050327
ECCENTRICITY   = .0003423
INCLINATION    = 53.1576
RA_OF_ASC_NODE = 100.2837
ARG_OF_PERICENTER = 27.2855
MEAN_ANOMALY   = 332.8347

EPHEMERIS_TYPE = 0
CLASSIFICATION_TYPE = U
NORAD_CAT_ID   = 68079
ELEMENT_SET_NO = 999
REV_AT_EPOCH   = 506
BSTAR          = .1725E-2
MEAN_MOTION_DOT = .357157E-2
MEAN_MOTION_DDOT = 0

CCSDS_OMM_VERS = 2.0
CREATION_DATE  = 
ORIGINATOR     = 

OBJECT_NAME    = STARLINK-37051
OBJECT_ID      = 2026-042M
CENTER_NAME    = EARTH
REF_FRAME      = TEME
TIME_SYSTEM    = UTC
MEAN_ELEMENT_THEORY = SGP/SGP4

EPOCH          = 2026-03-28T14:00:01.999872
MEAN_MOTION    = 15.75240654
ECCENTRICITY   = .00011269
INCLINATION    = 53.1586
RA_OF_ASC_NODE = 100.1524
ARG_OF_PERICENTER = 94.3603
MEAN_ANOMALY   = 146.5395

EPHEMERIS_TYPE = 0
CLASSIFICATION_TYPE = U
NORAD_CAT_ID   = 68080
ELEMENT_SET_NO = 999
REV_AT_EPOCH   = 508
BSTAR          = -.27916901E-3
MEAN_MOTION_DOT = -.43217E-3
MEAN_MOTION_DDOT = 0

CCSDS_OMM_VERS = 2.0
CREATION_DATE  = 
ORIGINATOR     = 

OBJECT_NAME    = STARLINK-37066
OBJECT_ID      = 2026-042N
CENTER_NAME    = EARTH
REF_FRAME      = TEME
TIME_SYSTEM    = UTC
MEAN_ELEMENT_THEORY = SGP/SGP4

EPOCH          = 2026-03-27T16:00:01.999584
MEAN_MOTION    = 15.75271720
ECCENTRICITY   = .00011078
INCLINATION    = 53.1592
RA_OF_ASC_NODE = 104.8635
ARG_OF_PERICENTER = 82.8853
MEAN_ANOMALY   = 281.3066

EPHEMERIS_TYPE = 0
CLASSIFICATION_TYPE = U
NORAD_CAT_ID   = 68081
ELEMENT_SET_NO = 999
REV_AT_EPOCH   = 494
BSTAR          = -.48039367E-3
MEAN_MOTION_DOT = -.73743E-3
MEAN_MOTION_DDOT = 0

