STARLINK-36823          
1 68070U 26042B   26087.28199709  .00340255  00000+0  16534-2 0  9992
2 68070  53.1585 101.5909 0001446  50.7660 309.3491 15.80964953  5020
STARLINK-36970          
1 68071U 26042C   26087.58335648  .00049179  00000+0  32389-3 0  9998
2 68071  53.1587 100.2062 0001233 120.8704  94.2956 15.75184266  5088
STARLINK-36972          
1 68072U 26042D   26087.53411132  .00335905  00000+0  16258-2 0  9998
2 68072  53.1575 100.3191 0000947 145.4718 214.6367 15.81061716  5062
STARLINK-37074          
1 68073U 26042E   26087.58335648  .00042761  00000+0  28210-3 0  9998
2 68073  53.1582 100.0959 0000944  96.4081 172.0901 15.75207128  5080
STARLINK-37045          
1 68074U 26042F   26086.48050108  .00073136  00000+0  47577-3 0  9999
2 68074  53.1596 105.8489 0002770  39.0243 321.0976 15.75302623  4891
STARLINK-37026          
1 68075U 26042G   26087.56844217  .00452215  00000+0  27619-2 0  9995
2 68075  53.1577 100.5459 0001131 101.2588 258.8559 15.75547702  5067
STARLINK-37023          
1 68076U 26042H   26087.49983689  .00211018  00000+0  13419-2 0  9992
2 68076  53.1578 100.8246 0001292 104.7292 255.3872 15.75320891  5051
STARLINK-37036          
1 68077U 26042J   26087.50016608  .00154193  00000+0  98885-3 0  9994
2 68077  53.1576 100.8271 0001346 121.5141 238.6011 15.75307434  5055
STARLINK-36973          
1 68078U 26042K   26087.58335648 -.00135316  00000+0 -89112-3 0  9992
2 68078  53.1581 100.0993 0000949  98.3281 168.3177 15.75280262  5083
STARLINK-37063          
1 68079U 26042L   26087.52886815  .00357157  00000+0  17250-2 0  9994
2 68079  53.1576 100.2837 0003423  27.2855 332.8347 15.81050327  5064
STARLINK-37051          
1 68080U 26042M   26087.58335648 -.00043217  00000+0 -27917-3 0  9998
2 68080  53.1586 100.1524 0001126  94.3603 146.5395 15.75240654  5085
STARLINK-37066          
1 68081U 26042N   26086.66668981 -.00073743  00000+0 -48039-3 0  9991
2 68081  53.1592 104.8635 0001107  82.8853 281.3066 15.75271720  4940
